[{"OBJECT_NAME":"IRIDIUM 148","OBJECT_ID":"2018-030G","EPOCH":"2026-03-09T17:19:11.405856","MEAN_MOTION":14.34218043,"ECCENTRICITY":0.00021734,"INCLINATION":86.4007,"RA_OF_ASC_NODE":332.0603,"ARG_OF_PERICENTER":85.9806,"MEAN_ANOMALY":274.1638,"EPHEMERIS_TYPE":0,"CLASSIFICATION_TYPE":"U","NORAD_CAT_ID":43255,"ELEMENT_SET_NO":999,"REV_AT_EPOCH":41591,"BSTAR":1.8722771e-5,"MEAN_MOTION_DOT":7.2e-7,"MEAN_MOTION_DDOT":0},{"OBJECT_NAME":"THOR ABLESTAR DEB","OBJECT_ID":"1961-015FB","EPOCH":"2026-03-09T15:24:12.211200","MEAN_MOTION":14.40710708,"ECCENTRICITY":0.0031941,"INCLINATION":66.3181,"RA_OF_ASC_NODE":164.7338,"ARG_OF_PERICENTER":357.8348,"MEAN_ANOMALY":2.2609,"EPHEMERIS_TYPE":0,"CLASSIFICATION_TYPE":"U","NORAD_CAT_ID":465,"ELEMENT_SET_NO":999,"REV_AT_EPOCH":33176,"BSTAR":0.00091066,"MEAN_MOTION_DOT":2.843e-5,"MEAN_MOTION_DDOT":0}]
